start=new Date('2022-06-05T00:00:00.000Z').valueOf();
sats=[{"TLE_LINE1":"1 50833U 22001AG  22155.51194103  .00063970  00000-0  40206-2 0  9992","DECAY_DATE":null,"EPOCH":"2022-06-04T12:17:11.704992","SEMIMAJOR_AXIS":"6918.487","CENTER_NAME":"EARTH","PERIAPSIS":"534.822","LAUNCH_DATE":"2022-01-06","BSTAR":"0.00402060000000","ECCENTRICITY":"0.00079940","INCLINATION":"53.2149","ARG_OF_PERICENTER":"277.9304","MEAN_ELEMENT_THEORY":"SGP4","APOAPSIS":"545.883","MEAN_ANOMALY":"82.0781","CLASSIFICATION_TYPE":"U","OBJECT_ID":"2022-001AG","GP_ID":"205352924","REF_FRAME":"TEME","NORAD_CAT_ID":"50833","TIME_SYSTEM":"UTC","EPHEMERIS_TYPE":"0","MEAN_MOTION_DOT":"0.00063970","PERIOD":"95.450","MEAN_MOTION":"15.08641427","MEAN_MOTION_DDOT":"0.0000000000000","OBJECT_NAME":"STARLINK-3316","REV_AT_EPOCH":"2295","ELEMENT_SET_NO":"999","RA_OF_ASC_NODE":"218.0253","COUNTRY_CODE":"US","FILE":"3480894","OBJECT_TYPE":"PAYLOAD","TLE_LINE2":"2 50833  53.2149 218.0253 0007994 277.9304  82.0781 15.08641427 22959","RCS_SIZE":"LARGE","SITE":"AFETR"},{"OBJECT_ID":"2022-001AH","MEAN_ANOMALY":"326.2277","CLASSIFICATION_TYPE":"U","APOAPSIS":"541.352","REF_FRAME":"TEME","GP_ID":"205353675","SEMIMAJOR_AXIS":"6917.875","CENTER_NAME":"EARTH","DECAY_DATE":null,"EPOCH":"2022-06-04T11:38:47.731488","TLE_LINE1":"1 50834U 22001AH  22155.48527467  .00000715  00000-0  63018-4 0  9998","MEAN_ELEMENT_THEORY":"SGP4","ECCENTRICITY":"0.00023290","INCLINATION":"53.2175","ARG_OF_PERICENTER":"33.8863","LAUNCH_DATE":"2022-01-06","BSTAR":"0.00006301800000","PERIAPSIS":"538.129","COUNTRY_CODE":"US","FILE":"3480894","TLE_LINE2":"2 50834  53.2175 228.1746 0002329  33.8863 326.2277 15.08841625 22803","OBJECT_TYPE":"PAYLOAD","RA_OF_ASC_NODE":"228.1746","SITE":"AFETR","RCS_SIZE":"LARGE","EPHEMERIS_TYPE":"0","MEAN_MOTION_DOT":"0.00000715","TIME_SYSTEM":"UTC","NORAD_CAT_ID":"50834","REV_AT_EPOCH":"2280","ELEMENT_SET_NO":"999","PERIOD":"95.437","MEAN_MOTION_DDOT":"0.0000000000000","MEAN_MOTION":"15.08841625","OBJECT_NAME":"STARLINK-3331"},{"EPOCH":"2022-06-04T11:28:12.129024","DECAY_DATE":null,"CENTER_NAME":"EARTH","SEMIMAJOR_AXIS":"6917.886","TLE_LINE1":"1 50835U 22001AJ  22155.47791816 -.00001578  00000-0 -81069-4 0  9995","INCLINATION":"53.2150","ARG_OF_PERICENTER":"37.9744","ECCENTRICITY":"0.00022890","MEAN_ELEMENT_THEORY":"SGP4","PERIAPSIS":"538.167","BSTAR":"-0.00008106900000","LAUNCH_DATE":"2022-01-06","OBJECT_ID":"2022-001AJ","APOAPSIS":"541.334","CLASSIFICATION_TYPE":"U","MEAN_ANOMALY":"322.1410","GP_ID":"205352423","REF_FRAME":"TEME","MEAN_MOTION_DOT":"-0.00001578","EPHEMERIS_TYPE":"0","NORAD_CAT_ID":"50835","TIME_SYSTEM":"UTC","ELEMENT_SET_NO":"999","REV_AT_EPOCH":"2280","PERIOD":"95.438","MEAN_MOTION_DDOT":"0.0000000000000","OBJECT_NAME":"STARLINK-3310","MEAN_MOTION":"15.08838318","OBJECT_TYPE":"PAYLOAD","TLE_LINE2":"2 50835  53.2150 228.1896 0002289  37.9744 322.1410 15.08838318 22800","FILE":"3480894","COUNTRY_CODE":"US","RA_OF_ASC_NODE":"228.1896","SITE":"AFETR","RCS_SIZE":"LARGE"},{"RCS_SIZE":"LARGE","SITE":"AFETR","RA_OF_ASC_NODE":"228.1353","OBJECT_TYPE":"PAYLOAD","TLE_LINE2":"2 50836  53.2176 228.1353 0002820  29.7220 330.3932 15.08839181 22704","FILE":"3480894","COUNTRY_CODE":"US","PERIOD":"95.438","MEAN_MOTION":"15.08839181","MEAN_MOTION_DDOT":"0.0000000000000","OBJECT_NAME":"STARLINK-3330","ELEMENT_SET_NO":"999","REV_AT_EPOCH":"2270","NORAD_CAT_ID":"50836","TIME_SYSTEM":"UTC","MEAN_MOTION_DOT":"0.00000466","EPHEMERIS_TYPE":"0","GP_ID":"205352173","REF_FRAME":"TEME","APOAPSIS":"541.699","CLASSIFICATION_TYPE":"U","MEAN_ANOMALY":"330.3932","OBJECT_ID":"2022-001AK","PERIAPSIS":"537.797","BSTAR":"0.00004740300000","LAUNCH_DATE":"2022-01-06","INCLINATION":"53.2176","ARG_OF_PERICENTER":"29.7220","ECCENTRICITY":"0.00028200","MEAN_ELEMENT_THEORY":"SGP4","TLE_LINE1":"1 50836U 22001AK  22155.48895004  .00000466  00000-0  47403-4 0  9998","EPOCH":"2022-06-04T11:44:05.283456","DECAY_DATE":null,"CENTER_NAME":"EARTH","SEMIMAJOR_AXIS":"6917.883"},{"PERIOD":"95.437","MEAN_MOTION_DDOT":"0.0000000000000","OBJECT_NAME":"STARLINK-3318","MEAN_MOTION":"15.08852800","REV_AT_EPOCH":"2294","ELEMENT_SET_NO":"999","TIME_SYSTEM":"UTC","NORAD_CAT_ID":"50837","EPHEMERIS_TYPE":"0","MEAN_MOTION_DOT":"-0.00000101","RCS_SIZE":"LARGE","SITE":"AFETR","RA_OF_ASC_NODE":"218.3210","COUNTRY_CODE":"US","FILE":"3480894","TLE_LINE2":"2 50837  53.2182 218.3210 0002281  40.1411 319.9749 15.08852800 22943","OBJECT_TYPE":"PAYLOAD","LAUNCH_DATE":"2022-01-06","BSTAR":"0.00001176100000","PERIAPSIS":"538.128","MEAN_ELEMENT_THEORY":"SGP4","ECCENTRICITY":"0.00022810","INCLINATION":"53.2182","ARG_OF_PERICENTER":"40.1411","TLE_LINE1":"1 50837U 22001AL  22155.44938720 -.00000101  00000-0  11761-4 0  9993","SEMIMAJOR_AXIS":"6917.841","CENTER_NAME":"EARTH","DECAY_DATE":null,"EPOCH":"2022-06-04T10:47:07.054080","REF_FRAME":"TEME","GP_ID":"205353425","MEAN_ANOMALY":"319.9749","CLASSIFICATION_TYPE":"U","APOAPSIS":"541.284","OBJECT_ID":"2022-001AL"},{"SEMIMAJOR_AXIS":"6917.891","CENTER_NAME":"EARTH","DECAY_DATE":null,"EPOCH":"2022-06-04T10:56:24.467136","TLE_LINE1":"1 50838U 22001AM  22155.45583874  .00000532  00000-0  51565-4 0  9994","MEAN_ELEMENT_THEORY":"SGP4","ECCENTRICITY":"0.00025310","INCLINATION":"53.2177","ARG_OF_PERICENTER":"30.8882","LAUNCH_DATE":"2022-01-06","BSTAR":"0.00005156500000","PERIAPSIS":"538.005","OBJECT_ID":"2022-001AM","MEAN_ANOMALY":"329.2259","CLASSIFICATION_TYPE":"U","APOAPSIS":"541.507","REF_FRAME":"TEME","GP_ID":"205353175","EPHEMERIS_TYPE":"0","MEAN_MOTION_DOT":"0.00000532","TIME_SYSTEM":"UTC","NORAD_CAT_ID":"50838","REV_AT_EPOCH":"2280","ELEMENT_SET_NO":"999","PERIOD":"95.438","MEAN_MOTION":"15.08836482","MEAN_MOTION_DDOT":"0.0000000000000","OBJECT_NAME":"STARLINK-3322","COUNTRY_CODE":"US","FILE":"3480894","TLE_LINE2":"2 50838  53.2177 228.2941 0002531  30.8882 329.2259 15.08836482 22808","OBJECT_TYPE":"PAYLOAD","RA_OF_ASC_NODE":"228.2941","SITE":"AFETR","RCS_SIZE":"LARGE"},{"TLE_LINE1":"1 50839U 22001AN  22155.46686572 -.00000514  00000-0 -14183-4 0  9992","EPOCH":"2022-06-04T11:12:17.198208","DECAY_DATE":null,"CENTER_NAME":"EARTH","SEMIMAJOR_AXIS":"6917.861","PERIAPSIS":"537.854","BSTAR":"-0.00001418300000","LAUNCH_DATE":"2022-01-06","INCLINATION":"53.2152","ARG_OF_PERICENTER":"30.1012","ECCENTRICITY":"0.00027060","MEAN_ELEMENT_THEORY":"SGP4","APOAPSIS":"541.598","CLASSIFICATION_TYPE":"U","MEAN_ANOMALY":"330.0135","OBJECT_ID":"2022-001AN","GP_ID":"205351923","REF_FRAME":"TEME","NORAD_CAT_ID":"50839","TIME_SYSTEM":"UTC","MEAN_MOTION_DOT":"-0.00000514","EPHEMERIS_TYPE":"0","PERIOD":"95.437","MEAN_MOTION":"15.08846312","MEAN_MOTION_DDOT":"0.0000000000000","OBJECT_NAME":"STARLINK-3320","ELEMENT_SET_NO":"999","REV_AT_EPOCH":"2279","RA_OF_ASC_NODE":"228.2374","OBJECT_TYPE":"PAYLOAD","TLE_LINE2":"2 50839  53.2152 228.2374 0002706  30.1012 330.0135 15.08846312 22798","FILE":"3480894","COUNTRY_CODE":"US","RCS_SIZE":"LARGE","SITE":"AFETR"},{"REF_FRAME":"TEME","GP_ID":"205352674","OBJECT_ID":"2022-001AP","MEAN_ANOMALY":"324.4813","CLASSIFICATION_TYPE":"U","APOAPSIS":"541.396","MEAN_ELEMENT_THEORY":"SGP4","ECCENTRICITY":"0.00023870","ARG_OF_PERICENTER":"35.6338","INCLINATION":"53.2166","LAUNCH_DATE":"2022-01-06","BSTAR":"0.00008162700000","PERIAPSIS":"538.093","SEMIMAJOR_AXIS":"6917.879","CENTER_NAME":"EARTH","DECAY_DATE":null,"EPOCH":"2022-06-04T11:06:59.457888","TLE_LINE1":"1 50840U 22001AP  22155.46318817  .00001011  00000-0  81627-4 0  9996","SITE":"AFETR","RCS_SIZE":"LARGE","FILE":"3480894","COUNTRY_CODE":"US","OBJECT_TYPE":"PAYLOAD","TLE_LINE2":"2 50840  53.2166 228.2514 0002387  35.6338 324.4813 15.08840372 22797","RA_OF_ASC_NODE":"228.2514","REV_AT_EPOCH":"2279","ELEMENT_SET_NO":"999","PERIOD":"95.438","MEAN_MOTION":"15.08840372","MEAN_MOTION_DDOT":"0.0000000000000","OBJECT_NAME":"STARLINK-3295","EPHEMERIS_TYPE":"0","MEAN_MOTION_DOT":"0.00001011","TIME_SYSTEM":"UTC","NORAD_CAT_ID":"50840"},{"RCS_SIZE":"LARGE","SITE":"AFETR","RA_OF_ASC_NODE":"228.2054","OBJECT_TYPE":"PAYLOAD","TLE_LINE2":"2 50841  53.2162 228.2054 0002401  38.5099 321.6064 15.08848187 22807","COUNTRY_CODE":"US","FILE":"3480894","OBJECT_NAME":"STARLINK-3300","PERIOD":"95.437","MEAN_MOTION_DDOT":"0.0000000000000","MEAN_MOTION":"15.08848187","ELEMENT_SET_NO":"999","REV_AT_EPOCH":"2280","TIME_SYSTEM":"UTC","NORAD_CAT_ID":"50841","MEAN_MOTION_DOT":"0.00000038","EPHEMERIS_TYPE":"0","REF_FRAME":"TEME","GP_ID":"205352925","CLASSIFICATION_TYPE":"U","MEAN_ANOMALY":"321.6064","APOAPSIS":"541.381","OBJECT_ID":"2022-001AQ","BSTAR":"0.00002050600000","LAUNCH_DATE":"2022-01-06","PERIAPSIS":"538.059","MEAN_ELEMENT_THEORY":"SGP4","ARG_OF_PERICENTER":"38.5099","INCLINATION":"53.2162","ECCENTRICITY":"0.00024010","TLE_LINE1":"1 50841U 22001AQ  22155.47421977  .00000038  00000-0  20506-4 0  9997","CENTER_NAME":"EARTH","SEMIMAJOR_AXIS":"6917.855","EPOCH":"2022-06-04T11:22:52.588128","DECAY_DATE":null},{"EPHEMERIS_TYPE":"0","MEAN_MOTION_DOT":"-0.00000034","TIME_SYSTEM":"UTC","NORAD_CAT_ID":"50842","REV_AT_EPOCH":"2279","ELEMENT_SET_NO":"999","MEAN_MOTION_DDOT":"0.0000000000000","PERIOD":"95.438","OBJECT_NAME":"STARLINK-3302","MEAN_MOTION":"15.08835700","COUNTRY_CODE":"US","FILE":"3480894","OBJECT_TYPE":"PAYLOAD","TLE_LINE2":"2 50842  53.2179 228.2808 0002479  32.5159 327.5986 15.08835700 22792","RA_OF_ASC_NODE":"228.2808","SITE":"AFETR","RCS_SIZE":"LARGE","SEMIMAJOR_AXIS":"6917.894","CENTER_NAME":"EARTH","DECAY_DATE":null,"EPOCH":"2022-06-04T11:01:42.645504","TLE_LINE1":"1 50842U 22001AR  22155.45952136 -.00000034  00000-0  15971-4 0  9999","MEAN_ELEMENT_THEORY":"SGP4","ECCENTRICITY":"0.00024790","ARG_OF_PERICENTER":"32.5159","INCLINATION":"53.2179","LAUNCH_DATE":"2022-01-06","BSTAR":"0.00001597100000","PERIAPSIS":"538.044","OBJECT_ID":"2022-001AR","MEAN_ANOMALY":"327.5986","CLASSIFICATION_TYPE":"U","APOAPSIS":"541.473","REF_FRAME":"TEME","GP_ID":"205353676"}];
